OBJECT_NAME,OBJECT_ID,EPOCH,MEAN_MOTION,ECCENTRICITY,INCLINATION,RA_OF_ASC_NODE,ARG_OF_PERICENTER,MEAN_ANOMALY,EPHEMERIS_TYPE,CLASSIFICATION_TYPE,NORAD_CAT_ID,ELEMENT_SET_NO,REV_AT_EPOCH,BSTAR,MEAN_MOTION_DOT,MEAN_MOTION_DDOT
STARLINK-3783,2022-041X,2026-06-05T21:10:06.103776,15.08884463,.00048433,53.1784,63.1950,161.9876,198.1288,0,U,52282,999,22781,.60255366E-3,.9327E-4,0
STARLINK-3789,2022-041Y,2026-06-04T23:14:38.244480,15.08836387,.00013032,53.1789,77.2795,57.2401,302.8717,0,U,52283,999,22754,.95827915E-4,.1237E-4,0
STARLINK-3561,2022-041Z,2026-06-05T11:27:15.402240,15.08832443,.00011297,53.1770,64.9940,105.4369,254.6748,0,U,52284,999,22775,.3353586E-5,-.235E-5,0
STARLINK-3802,2022-041AB,2026-06-05T11:16:39.489600,15.08834184,.00011129,53.1763,65.0281,112.6586,247.4524,0,U,52286,999,22775,.18608981E-4,.8E-7,0
STARLINK-3822,2022-041AC,2026-06-05T11:41:49.767648,15.08837543,.00011101,53.1770,74.9491,84.0754,276.0364,0,U,52287,999,22762,.38817964E-4,.33E-5,0
STARLINK-3776,2022-041AD,2026-06-05T23:54:26.521056,15.08834189,.00012015,53.1771,62.6660,95.8826,264.2303,0,U,52288,999,22783,.47952494E-4,.475E-5,0
STARLINK-3751,2022-041AE,2026-06-05T21:04:52.318848,15.08826082,.00014414,53.1755,63.1987,58.3781,301.7351,0,U,52289,999,22781,.11591619E-3,.1557E-4,0
STARLINK-3772,2022-041AF,2026-06-05T10:56:51.743616,15.08818207,.00011399,53.1750,65.0883,75.8951,284.2167,0,U,52290,999,22775,-.66782412E-4,-.135E-4,0
STARLINK-3753,2022-041AH,2026-06-05T10:50:10.445856,15.08843196,.00013607,53.1781,65.1067,86.9608,273.1539,0,U,52292,999,22775,.22360039E-4,.68E-6,0
STARLINK-3771,2022-041AJ,2026-06-05T23:50:31.563168,15.08821624,.00011763,53.1770,62.6887,90.8270,269.2857,0,U,52293,999,22783,.26043066E-3,.3857E-4,0
STARLINK-3777,2022-041AK,2026-06-06T01:03:19.928160,15.08837751,.00010726,53.1748,62.4509,115.8478,244.2624,0,U,52294,999,22784,.16234032E-4,-.29E-6,0
STARLINK-3765,2022-041AL,2026-06-05T11:00:45.148896,15.08813517,.00013028,53.1767,65.0748,90.3534,269.7607,0,U,52295,999,22775,.30152856E-3,.4511E-4,0
STARLINK-3766,2022-041AM,2026-06-05T21:36:40.250304,15.08832852,.00013607,53.1748,63.0965,92.2559,267.8589,0,U,52296,999,22782,.14715319E-4,-.54E-6,0
STARLINK-3758,2022-041AN,2026-06-05T10:55:28.159392,15.08831275,.00014754,53.1766,65.0962,93.5181,266.5980,0,U,52297,999,22775,.15005077E-4,-.49E-6,0
STARLINK-3760,2022-041AP,2026-06-05T23:49:04.361376,15.08840917,.00012002,53.1769,62.2968,90.4253,269.6877,0,U,52298,999,22784,.51645399E-4,.534E-5,0
STARLINK-3769,2022-041AR,2026-06-06T00:31:18.508800,15.09030716,.0001737,53.1829,62.5581,113.2330,246.8845,0,U,52300,999,22906,.17347539E-2,.27574E-3,0
STARLINK-3768,2022-041AS,2026-06-05T21:47:15.956448,15.08823708,.00010639,53.1740,63.0601,80.4690,279.6422,0,U,52301,999,22782,.11191442E-3,.1493E-4,0
STARLINK-3564,2022-041AT,2026-06-06T05:03:09.765216,15.08796025,.00034421,53.1805,51.7251,162.2086,197.9027,0,U,52302,999,22800,-.35489886E-3,-.5927E-4,0
STARLINK-3742,2022-041AU,2026-06-06T00:36:50.897376,15.08829584,.00020145,53.1792,62.5450,128.7129,231.4043,0,U,52303,999,22906,.14466087E-3,.2014E-4,0
STARLINK-3744,2022-041AV,2026-06-05T21:00:53.494560,15.08814724,.00014021,53.1747,53.2128,111.3710,248.7431,0,U,52304,999,22795,.27904269E-3,.4153E-4,0
STARLINK-3724,2022-041AW,2026-06-05T21:31:23.248704,15.08829431,.00012679,53.1759,63.2417,86.4333,273.6804,0,U,52305,999,22782,.59947959E-4,.666E-5,0
STARLINK-3747,2022-041AX,2026-06-06T06:00:02.000160,15.08833472,.00013521,53.1697,51.5266,82.7013,172.1879,0,U,52306,999,579,.90339301E-4,.115E-4,0
STARLINK-3755,2022-041AY,2026-06-05T21:15:29.091168,15.08812352,.00021019,53.1796,63.1708,138.6520,221.4631,0,U,52307,999,22782,-.17177536E-3,-.3019E-4,0
STARLINK-3756,2022-041BA,2026-06-05T20:50:10.027104,15.08936875,.00018067,53.1812,53.2537,154.5880,205.5201,0,U,52309,999,22917,.10717635E-2,.16856E-3,0
STARLINK-3688,2022-041BB,2026-06-05T23:55:42.498624,15.08883906,.00025721,53.1785,52.7431,148.2009,211.9139,0,U,52310,999,22919,.43698911E-3,.6682E-4,0
STARLINK-3750,2022-041BC,2026-06-05T23:50:28.146048,15.08840084,.00012778,53.1773,52.6825,95.7735,264.3402,0,U,52311,999,22919,.15347039E-3,.2155E-4,0
STARLINK-3752,2022-041BD,2026-06-05T21:16:51.076128,15.08781941,.0002262,53.1843,53.1090,83.2156,276.9093,0,U,52312,999,22918,-.58983289E-3,-.9649E-4,0
STARLINK-3749,2022-041BE,2026-06-05T10:14:23.951040,15.08831359,.00018128,53.1846,55.2237,83.8251,276.2947,0,U,52313,999,22911,.26881488E-4,.14E-5,0
SUPERVIEW NEO-1 01,2022-043A,2026-06-06T06:09:38.186208,15.16422498,.00013247,97.3403,230.3875,25.9190,334.2109,0,U,52320,999,22790,.29739969E-3,.5717E-4,0
SUPERVIEW NEO-1 02,2022-043C,2026-06-06T06:55:17.975136,15.16374059,.00024419,97.3398,230.4340,49.1542,310.9902,0,U,52322,999,22792,.33672949E-3,.6473E-4,0
STARLINK-3889,2022-045A,2026-06-05T08:23:06.388800,15.08840842,.0001147,53.1774,175.5720,89.0444,271.0679,0,U,52331,999,22887,-.62153657E-4,-.1277E-4,0
STARLINK-3831,2022-045B,2026-06-05T08:40:23.260512,15.08832663,.00014701,53.1765,175.5129,47.7322,312.3794,0,U,52332,999,22887,.34244877E-4,.257E-5,0
STARLINK-3847,2022-045C,2026-06-05T08:33:45.702144,15.08791310,.00025104,53.1865,175.5538,126.7530,233.3693,0,U,52333,999,22886,-.37198743E-3,-.6196E-4,0
STARLINK-3880,2022-045D,2026-06-05T08:17:48.291648,15.08851514,.00012034,53.1759,175.5886,83.8847,276.2282,0,U,52334,999,22886,-.21573404E-3,-.3721E-4,0
STARLINK-3814,2022-045E,2026-06-05T08:12:29.244960,15.08849749,.0001348,53.1757,175.6117,94.4000,265.7146,0,U,52335,999,22887,.15503596E-3,.2181E-4,0
STARLINK-3823,2022-045F,2026-06-05T07:35:21.514272,15.08854707,.00007801,53.1889,175.5225,78.9404,281.1675,0,U,52336,999,22887,.18791738E-3,.2705E-4,0
STARLINK-3797,2022-045G,2026-06-05T08:28:25.398336,15.08831287,.00013614,53.1766,175.5577,54.7887,305.3232,0,U,52337,999,22887,-.35594197E-4,-.854E-5,0
STARLINK-3792,2022-045J,2026-06-05T08:38:56.726592,15.08840447,.0003101,53.1883,175.1927,53.5347,306.5931,0,U,52339,999,22888,.86991618E-4,.1096E-4,0
STARLINK-3818,2022-045K,2026-06-05T06:59:42.652032,15.08780444,.0001181,53.1875,165.8347,44.4409,315.6677,0,U,52340,999,22899,-.46622E-3,-.7688E-4,0
STARLINK-3843,2022-045L,2026-06-05T07:51:18.820224,15.08829733,.00013595,53.1807,175.6220,93.5347,266.5800,0,U,52341,999,22887,.84227189E-4,.1052E-4,0
STARLINK-3850,2022-045M,2026-06-05T16:37:16.451328,15.08841377,.00011665,53.1779,164.1393,79.5142,280.5981,0,U,52342,999,22906,-.60414917E-4,-.1249E-4,0
STARLINK-3849,2022-045N,2026-06-05T08:44:18.492288,15.08830933,.0001454,53.1757,175.4985,115.4191,244.6951,0,U,52343,999,22888,.28735377E-4,.169E-5,0
STARLINK-3851,2022-045P,2026-06-05T08:24:25.411968,15.08852930,.00013685,53.1788,165.6400,134.9097,225.2006,0,U,52344,999,22901,-.30451169E-3,-.5133E-4,0
STARLINK-3852,2022-045Q,2026-06-05T07:27:32.845248,15.08832818,.00011178,53.1789,165.9169,89.9477,270.1643,0,U,52345,999,22899,.25567793E-4,.119E-5,0
STARLINK-3812,2022-045R,2026-06-05T08:15:12.887424,15.08834347,.00013018,53.1784,165.5952,90.5450,269.5691,0,U,52346,999,22901,.13957601E-4,-.66E-6,0
STARLINK-3826,2022-045S,2026-06-05T06:55:42.728736,15.08837998,.0001723,53.1877,165.8578,111.5955,248.5220,0,U,52347,999,22900,.15802E-4,-.37E-6,0
STARLINK-3829,2022-045T,2026-06-05T08:03:14.232960,15.08837782,.00012999,53.1758,165.6175,56.1668,303.9447,0,U,52348,999,22901,.1434782E-5,-.265E-5,0
STARLINK-3819,2022-045U,2026-06-05T08:19:08.527008,15.08833076,.00011611,53.1783,165.5840,65.7715,294.3398,0,U,52349,999,22901,-.3821334E-5,-.349E-5,0
STARLINK-3754,2022-045V,2026-06-05T07:57:56.270592,15.08839561,.00013278,53.1761,165.6507,56.3148,303.7970,0,U,52350,999,22901,-.20362048E-4,-.612E-5,0
STARLINK-3838,2022-045X,2026-06-04T06:15:52.077024,15.08832300,.00012634,53.1797,170.4644,71.4106,288.7023,0,U,52352,999,22885,.17716472E-4,-.6E-7,0
STARLINK-3807,2022-045Y,2026-06-05T07:52:38.524224,15.08827178,.00015562,53.1773,165.6650,43.4220,316.6894,0,U,52353,999,22901,.38003796E-4,.317E-5,0
STARLINK-3877,2022-045AA,2026-06-05T07:47:20.875488,15.08798991,.00013374,53.1773,165.6866,81.6224,278.4919,0,U,52355,999,22901,.39462188E-3,.5991E-4,0
STARLINK-3801,2022-045AB,2026-06-05T15:28:22.313280,15.08826111,.00009347,53.1767,164.2718,101.3113,258.7983,0,U,52356,999,22906,-.11356361E-3,-.2094E-4,0
STARLINK-3821,2022-045AC,2026-06-05T07:36:44.339040,15.08838362,.00011277,53.1777,165.7180,72.4863,287.6252,0,U,52357,999,22901,-.73217125E-4,-.1453E-4,0
STARLINK-3837,2022-045AD,2026-06-05T07:10:14.160864,15.08847090,.000157,53.1846,165.8011,77.2272,282.8895,0,U,52358,999,22901,.20778E-3,.3021E-4,0
STARLINK-3853,2022-045AE,2026-06-05T07:32:49.280064,15.08828857,.00013144,53.1781,165.7404,74.4847,285.6290,0,U,52359,999,22901,.46001981E-4,.444E-5,0
STARLINK-3728,2022-045AG,2026-06-05T07:20:50.558208,15.08836133,.0001038,53.1795,165.7712,81.5996,278.5113,0,U,52361,999,22901,-.27999E-4,-.733E-5,0
STARLINK-3848,2022-045AH,2026-06-05T06:55:40.351872,15.08832117,.0001617,53.1794,155.8437,55.4463,304.6681,0,U,52362,999,22914,.65426E-5,-.184E-5,0
STARLINK-3830,2022-045AJ,2026-06-05T07:15:32.087808,15.08836738,.00017085,53.1789,165.7669,134.4726,225.6405,0,U,52363,999,22901,.1758294E-4,-.8E-7,0
STARLINK-3820,2022-045AK,2026-06-06T04:49:45.418368,15.08972972,.00012766,53.1742,151.6557,73.3973,286.7159,0,U,52364,999,22928,.19147507E-2,.30429E-3,0
STARLINK-3874,2022-045AL,2026-06-05T07:06:16.299072,15.08832592,.0001535,53.1783,155.8089,55.0473,305.0663,0,U,52365,999,22914,.149E-4,-.51E-6,0
STARLINK-3808,2022-045AM,2026-06-05T06:39:52.326144,15.08753589,.000167,53.1902,155.9007,70.9453,289.1720,0,U,52366,999,22914,-.68365E-3,-.11126E-3,0
STARLINK-3817,2022-045AN,2026-06-05T16:22:41.028384,15.08834275,.00012097,53.1793,154.0720,65.0415,295.0702,0,U,52367,999,22920,.35668616E-4,.28E-5,0
STARLINK-3834,2022-045AP,2026-06-05T06:23:52.355616,15.08837575,.0001209,53.1795,155.9452,88.6527,271.4603,0,U,52368,999,22913,.3489E-4,.267E-5,0
